STARLINK-31534          
1 59398U 24064A   26068.32047092 -.00000736  00000+0 -17248-4 0  9992
2 59398  43.0026  57.8874 0000936 254.4263 105.6485 15.27574218109117
TEVEL2-9                
1 63237U 25052AD  26068.70229538  .00018694  00000+0  67240-3 0  9992
2 63237  97.4057 324.3929 0007990 124.2475 235.9522 15.28633834 54816
